[
    {
        "CCSDS_OMM_VERS": "3.0",
        "COMMENT": "GENERATED VIA SPACE-TRACK.ORG API",
        "CREATION_DATE": "2025-03-02T18:08:23",
        "ORIGINATOR": "18 SPCS",
        "OBJECT_NAME": "BEIDOU 6",
        "OBJECT_ID": "2010-057A",
        "CENTER_NAME": "EARTH",
        "REF_FRAME": "TEME",
        "TIME_SYSTEM": "UTC",
        "MEAN_ELEMENT_THEORY": "SGP4",
        "EPOCH": "2025-03-02T12:32:26.465856",
        "MEAN_MOTION": "1.00271448",
        "ECCENTRICITY": "0.00077460",
        "INCLINATION": "2.4751",
        "RA_OF_ASC_NODE": "70.4408",
        "ARG_OF_PERICENTER": "204.6485",
        "MEAN_ANOMALY": "233.5719",
        "EPHEMERIS_TYPE": "0",
        "CLASSIFICATION_TYPE": "U",
        "NORAD_CAT_ID": "37210",
        "ELEMENT_SET_NO": "999",
        "REV_AT_EPOCH": "5256",
        "BSTAR": "0.00000000000000",
        "MEAN_MOTION_DOT": "-0.00000114",
        "MEAN_MOTION_DDOT": "0.0000000000000",
        "SEMIMAJOR_AXIS": "42164.826",
        "PERIOD": "1436.102",
        "APOAPSIS": "35819.352",
        "PERIAPSIS": "35754.031",
        "OBJECT_TYPE": "PAYLOAD",
        "RCS_SIZE": "LARGE",
        "COUNTRY_CODE": "PRC",
        "LAUNCH_DATE": "2010-10-31",
        "SITE": "XSC",
        "DECAY_DATE": null,
        "FILE": "4657142",
        "GP_ID": "282083179",
        "TLE_LINE0": "0 BEIDOU 6",
        "TLE_LINE1": "1 37210U 10057A   25061.52252854 -.00000114  00000-0  00000-0 0  9990",
        "TLE_LINE2": "2 37210   2.4751  70.4408 0007746 204.6485 233.5719  1.00271448 52565"
    }
]